NORAD_CAT_ID,OBJECT_NAME,OBJECT_TYPE,EPOCH,MEAN_MOTION,ECCENTRICITY,INCLINATION,RA_OF_ASC_NODE,ARG_OF_PERICENTER,MEAN_ANOMALY,BSTAR,MEAN_MOTION_DOT,MEAN_MOTION_DDOT,TLE_LINE0,TLE_LINE1,TLE_LINE2,SEMIMAJOR_AXIS,PERIOD,APOGEE,PERIGEE,DECAYED
55432.0,STARLINK-5637,PAYLOAD,2024-01-20 23:00:39,14.98328936,0.0002701,69.9991,267.8608,259.3477,100.7378,1.7964e-05,1.21e-06,0.0,0 STARLINK-5637,1 55432U 23014AT  24020.95879278  .00000121  00000-0  17964-4 0  9997,2 55432  69.9991 267.8608 0002701 259.3477 100.7378 14.98328936 54422,6950.196,96.107,573.938,570.184,0.0
55432.0,STARLINK-5637,PAYLOAD,2024-01-21 02:12:55,14.98328501,0.0002641,69.999,267.5229,264.5198,95.566,1.878e-05,1.31e-06,0.0,0 STARLINK-5637,1 55432U 23014AT  24021.09231365  .00000131  00000-0  18780-4 0  9990,2 55432  69.9990 267.5229 0002641 264.5198  95.5660 14.98328501 54443,6950.198,96.107,573.898,570.227,0.0
55432.0,STARLINK-5637,PAYLOAD,2024-01-21 19:50:24,14.9833319,0.0002771,69.9984,265.6711,264.1259,95.9584,4.2081e-05,4.09e-06,0.0,0 STARLINK-5637,1 55432U 23014AT  24021.82666938  .00000409  00000-0  42081-4 0  9998,2 55432  69.9984 265.6711 0002771 264.1259  95.9584 14.98333190 53616,6950.183,96.107,573.974,570.122,0.0
55432.0,STARLINK-5637,PAYLOAD,2024-01-21 21:26:32,14.98333459,0.0002743,69.9985,265.5029,264.8684,95.2162,4.6727e-05,4.65e-06,0.0,0 STARLINK-5637,1 55432U 23014AT  24021.89342886  .00000465  00000-0  46727-4 0  9991,2 55432  69.9985 265.5029 0002743 264.8684  95.2162 14.98333459 54564,6950.182,96.107,573.954,570.141,0.0
55432.0,STARLINK-5637,PAYLOAD,2024-01-22 02:14:56,14.98334491,0.0002741,69.9985,264.9983,262.8688,97.2159,5.4613e-05,5.59e-06,0.0,0 STARLINK-5637,1 55432U 23014AT  24022.09370749  .00000559  00000-0  54613-4 0  9990,2 55432  69.9985 264.9983 0002741 262.8688  97.2159 14.98334491 54594,6950.179,96.107,573.949,570.139,0.0
55432.0,STARLINK-5637,PAYLOAD,2024-01-22 19:52:25,14.98329388,0.0002725,69.9985,263.1465,262.7178,97.3671,4.2633e-05,4.16e-06,0.0,0 STARLINK-5637,1 55432U 23014AT  24022.82807077  .00000416  00000-0  42633-4 0  9991,2 55432  69.9985 263.1465 0002725 262.7178  97.3671 14.98329388 53762,6950.195,96.107,573.954,570.166,0.0
55432.0,STARLINK-5637,PAYLOAD,2024-01-22 21:28:33,14.9832905,0.0002726,69.9985,262.9781,261.7943,98.2907,3.6921e-05,3.48e-06,0.0,0 STARLINK-5637,1 55432U 23014AT  24022.89483080  .00000348  00000-0  36921-4 0  9999,2 55432  69.9985 262.9781 0002726 261.7943  98.2907 14.98329050 54714,6950.196,96.107,573.955,570.166,0.0
55432.0,STARLINK-5637,PAYLOAD,2024-01-23 02:16:57,14.98331522,0.0002695,69.9985,262.4732,261.2329,98.8525,6.2539e-05,6.53e-06,0.0,0 STARLINK-5637,1 55432U 23014AT  24023.09510844  .00000653  00000-0  62539-4 0  9994,2 55432  69.9985 262.4732 0002695 261.2329  98.8525 14.98331522 54745,6950.188,96.107,573.926,570.18,0.0
55432.0,STARLINK-5637,PAYLOAD,2024-01-23 21:30:33,14.98333759,0.0002602,69.9988,260.4535,250.5926,109.4952,4.3259e-05,4.23e-06,0.0,0 STARLINK-5637,1 55432U 23014AT  24023.89622572  .00000423  00000-0  43259-4 0  9997,2 55432  69.9988 260.4535 0002602 250.5926 109.4952 14.98333759 54869,6950.181,96.107,573.855,570.238,0.0
55432.0,STARLINK-5637,PAYLOAD,2024-01-24 00:42:50,14.98332591,0.0002612,69.9987,260.1168,254.0711,106.016,2.5804e-05,2.15e-06,0.0,0 STARLINK-5637,1 55432U 23014AT  24024.02974685  .00000215  00000-0  25804-4 0  9993,2 55432  69.9987 260.1168 0002612 254.0711 106.0160 14.98332591 53944,6950.185,96.107,573.865,570.234,0.0
55432.0,STARLINK-5637,PAYLOAD,2024-01-24 21:32:35,14.983296,0.0002638,69.9985,257.9277,256.1437,103.9428,1.4302e-05,7.8e-07,0.0,0 STARLINK-5637,1 55432U 23014AT  24024.89762870  .00000078  00000-0  14302-4 0  9997,2 55432  69.9985 257.9277 0002638 256.1437 103.9428 14.98329600 55013,6950.194,96.107,573.893,570.226,0.0
55432.0,STARLINK-5637,PAYLOAD,2024-01-25 00:44:51,14.98328645,0.0002655,69.9985,257.591,257.9814,102.1048,4.1221e-07,-8.8e-07,0.0,0 STARLINK-5637,1 55432U 23014AT  24025.03114981 -.00000088  00000-0  41221-6 0  9992,2 55432  69.9985 257.5910 0002655 257.9814 102.1048 14.98328645 54094,6950.197,96.107,573.907,570.217,0.0
55432.0,STARLINK-5637,PAYLOAD,2024-01-25 08:45:31,14.98329907,0.0002691,69.9984,256.7503,255.4219,104.6641,5.1243e-06,-3.2e-07,0.0,0 STARLINK-5637,1 55432U 23014AT  24025.36494898 -.00000032  00000-0  51243-5 0  9999,2 55432  69.9984 256.7503 0002691 255.4219 104.6641 14.98329907 55082,6950.193,96.107,573.928,570.188,0.0
55432.0,STARLINK-5637,PAYLOAD,2024-01-25 21:34:36,14.98326127,0.0002763,69.9982,255.4035,259.2696,100.8152,-4.7271e-05,-6.57e-06,0.0,0 STARLINK-5637,1 55432U 23014AT  24025.89903353 -.00000657  00000-0 -47271-4 0  9997,2 55432  69.9982 255.4035 0002763 259.2696 100.8152 14.98326127 55162,6950.205,96.107,573.99,570.15,0.0
55432.0,STARLINK-5637,PAYLOAD,2024-01-26 00:46:52,14.98328436,0.0002738,69.9983,255.0671,259.2451,100.84,-1.9982e-05,-3.31e-06,0.0,0 STARLINK-5637,1 55432U 23014AT  24026.03255143 -.00000331  00000-0 -19982-4 0  9998,2 55432  69.9983 255.0671 0002738 259.2451 100.8400 14.98328436 54245,6950.198,96.107,573.966,570.16,0.0
55432.0,STARLINK-5637,PAYLOAD,2024-01-27 00:48:52,14.98334781,0.0002848,69.9979,252.5415,262.8099,97.2736,9.2944e-05,1.016e-05,0.0,0 STARLINK-5637,1 55432U 23014AT  24027.03394406  .00001016  00000-0  92944-4 0  9993,2 55432  69.9979 252.5415 0002848 262.8099  97.2736 14.98334781 54395,6950.178,96.107,574.023,570.064,0.0
55432.0,STARLINK-5637,PAYLOAD,2024-01-27 20:02:30,14.98306672,0.000273,69.9984,250.5207,261.4375,98.6475,0.00048582,5.705e-05,0.0,0 STARLINK-5637,1 55432U 23014AT  24027.83507471  .00005705  00000-0  48582-3 0  9996,2 55432  69.9984 250.5207 0002730 261.4375  98.6475 14.98306672 54517,6950.265,96.108,574.027,570.233,0.0
55432.0,STARLINK-5637,PAYLOAD,2024-01-27 21:38:38,14.98317608,0.0002774,69.9985,250.3512,275.6696,84.4146,0.00018855,2.157e-05,0.0,0 STARLINK-5637,1 55432U 23014AT  24027.90183317  .00002157  00000-0  18855-3 0  9991,2 55432  69.9985 250.3512 0002774 275.6696  84.4146 14.98317608 55460,6950.231,96.108,574.024,570.168,0.0
55432.0,STARLINK-5637,PAYLOAD,2024-01-28 00:50:54,14.98319347,0.000277,69.9986,250.0154,270.6468,89.4373,0.00019534,2.238e-05,0.0,0 STARLINK-5637,1 55432U 23014AT  24028.03535223  .00002238  00000-0  19534-3 0  9998,2 55432  69.9986 250.0154 0002770 270.6468  89.4373 14.98319347 54545,6950.226,96.108,574.016,570.166,0.0
55432.0,STARLINK-5637,PAYLOAD,2024-01-28 20:04:30,14.98362668,0.0002946,69.9988,247.9949,275.6097,84.4726,-0.00050201,-6.083e-05,0.0,0 STARLINK-5637,1 55432U 23014AT  24028.83646231 -.00006083  00000-0 -50201-3 0  9998,2 55432  69.9988 247.9949 0002946 275.6097  84.4726 14.98362668 54666,6950.092,96.105,574.004,569.909,0.0
55432.0,STARLINK-5637,PAYLOAD,2024-01-28 21:40:38,14.98332443,0.0002779,69.9988,247.8271,273.7342,86.3499,-1.041e-05,-2.17e-06,0.0,0 STARLINK-5637,1 55432U 23014AT  24028.90322812 -.00000217  00000-0 -10410-4 0  9994,2 55432  69.9988 247.8271 0002779 273.7342  86.3499 14.98332443 55611,6950.185,96.107,573.982,570.119,0.0
55432.0,STARLINK-5637,PAYLOAD,2024-01-29 00:52:54,14.9833368,0.0002746,69.9989,247.4909,271.628,88.4565,3.4137e-06,-5.2e-07,0.0,0 STARLINK-5637,1 55432U 23014AT  24029.03674657 -.00000052  00000-0  34137-5 0  9995,2 55432  69.9989 247.4909 0002746 271.6280  88.4565 14.98333680 54696,6950.182,96.107,573.955,570.138,0.0
55432.0,STARLINK-5637,PAYLOAD,2024-01-29 13:41:59,14.98330927,0.0002758,69.9992,246.1443,271.4882,88.5961,6.2851e-05,6.57e-06,0.0,0 STARLINK-5637,1 55432U 23014AT  24029.57082542  .00000657  00000-0  62851-4 0  9993,2 55432  69.9992 246.1443 0002758 271.4882  88.5961 14.98330927 55714,6950.19,96.107,573.972,570.138,0.0
55432.0,STARLINK-5637,PAYLOAD,2024-01-30 00:54:55,14.98331426,0.0002759,69.9992,244.966,271.4503,88.634,5.9526e-05,6.17e-06,0.0,0 STARLINK-5637,1 55432U 23014AT  24030.03814479  .00000617  00000-0  59526-4 0  9999,2 55432  69.9992 244.9660 0002759 271.4503  88.6340 14.98331426 54842,6950.188,96.107,573.971,570.136,0.0
55432.0,STARLINK-5637,PAYLOAD,2024-01-30 21:44:40,14.98331668,0.0002755,69.9991,242.7776,267.3926,92.6918,1.8686e-05,1.3e-06,0.0,0 STARLINK-5637,1 55432U 23014AT  24030.90602416  .00000130  00000-0  18686-4 0  9993,2 55432  69.9991 242.7776 0002755 267.3926  92.6918 14.98331668 55917,6950.188,96.107,573.968,570.138,0.0
55432.0,STARLINK-5637,PAYLOAD,2024-01-31 13:46:01,14.98329206,0.0002694,69.9991,241.0946,267.421,92.6641,-1.0471e-05,-2.18e-06,0.0,0 STARLINK-5637,1 55432U 23014AT  24031.57362621 -.00000218  00000-0 -10471-4 0  9991,2 55432  69.9991 241.0946 0002694 267.4210  92.6641 14.98329206 55072,6950.195,96.107,573.933,570.188,0.0
55432.0,STARLINK-5637,PAYLOAD,2024-02-01 13:48:02,14.98329719,0.0002804,69.9987,238.5689,272.6413,87.4425,1.6764e-05,1.07e-06,0.0,0 STARLINK-5637,1 55432U 23014AT  24032.57502557  .00000107  00000-0  16764-4 0  9992,2 55432  69.9987 238.5689 0002804 272.6413  87.4425 14.98329719 56160,6950.194,96.107,574.008,570.11,0.0
55432.0,STARLINK-5637,PAYLOAD,2024-02-02 13:50:03,14.98330015,0.0002871,69.9997,236.0427,273.4033,86.6798,4.8505e-05,4.86e-06,0.0,0 STARLINK-5637,1 55432U 23014AT  24033.57642465  .00000486  00000-0  48505-4 0  9994,2 55432  69.9997 236.0427 0002871 273.4033  86.6798 14.98330015 56317,6950.193,96.107,574.053,570.062,0.0
55432.0,STARLINK-5637,PAYLOAD,2024-02-02 18:38:27,14.98329584,0.0002874,69.9987,235.5385,272.7538,87.3292,4.361e-05,4.27e-06,0.0,0 STARLINK-5637,1 55432U 23014AT  24033.77670511  .00000427  00000-0  43610-4 0  9996,2 55432  69.9987 235.5385 0002874 272.7538  87.3292 14.98329584 55403,6950.194,96.107,574.057,570.062,0.0
55432.0,STARLINK-5637,PAYLOAD,2024-02-02 21:50:43,14.98330387,0.0002862,69.9987,235.202,273.1788,86.9043,5.1976e-05,5.27e-06,0.0,0 STARLINK-5637,1 55432U 23014AT  24033.91022434  .00000527  00000-0  51976-4 0  9992,2 55432  69.9987 235.2020 0002862 273.1788  86.9043 14.98330387 56363,6950.192,96.107,574.046,570.068,0.0
